{
  "norad_id": 59352,
  "name": "STARLINK-31561",
  "history": [
    {
      "epoch": "2026-03-28T13:26:00.646944Z",
      "apogee_km": 483.23262389201045,
      "perigee_km": 482.90191384625086,
      "latitude_deg": -5.032997870692222e-05,
      "longitude_deg": 125.38822015523644,
      "height_km": 482.7343373195045,
      "semi_major_axis_km": 6861.20426886913,
      "eccentricity": 2.41e-05,
      "inclination_deg": 42.9999,
      "raan_deg": 152.8694,
      "arg_perigee_deg": 311.0236,
      "mean_anomaly_deg": 49.0594,
      "mean_motion_rev_day": 15.27573931
    },
    {
      "epoch": "2026-03-30T03:05:45.667392Z",
      "apogee_km": 483.4738803960772,
      "perigee_km": 482.6771563984421,
      "latitude_deg": 3.069626621451641e-05,
      "longitude_deg": -89.9567222989711,
      "height_km": 482.61923073210374,
      "semi_major_axis_km": 6861.212518397259,
      "eccentricity": 5.806e-05,
      "inclination_deg": 43.0024,
      "raan_deg": 144.0087,
      "arg_perigee_deg": 305.6997,
      "mean_anomaly_deg": 54.3801,
      "mean_motion_rev_day": 15.27571176
    },
    {
      "epoch": "2026-03-30T12:30:42.303744Z",
      "apogee_km": 483.6205806967009,
      "perigee_km": 482.53595978678186,
      "latitude_deg": -1.076286677654761e-05,
      "longitude_deg": 126.20355875845996,
      "height_km": 482.82877542970135,
      "semi_major_axis_km": 6861.215270241742,
      "eccentricity": 7.904e-05,
      "inclination_deg": 43.0025,
      "raan_deg": 141.7917,
      "arg_perigee_deg": 272.7427,
      "mean_anomaly_deg": 87.3334,
      "mean_motion_rev_day": 15.27570257
    },
    {
      "epoch": "2026-03-30T20:21:30.150432Z",
      "apogee_km": 484.63936561303035,
      "perigee_km": 481.60188686189576,
      "latitude_deg": -1.0380895124015087e-05,
      "longitude_deg": 6.336848945427758,
      "height_km": 482.7568198160433,
      "semi_major_axis_km": 6861.257626237463,
      "eccentricity": 0.00022135,
      "inclination_deg": 43.008,
      "raan_deg": 139.9466,
      "arg_perigee_deg": 275.3666,
      "mean_anomaly_deg": 84.6933,
      "mean_motion_rev_day": 15.27556112
    },
    {
      "epoch": "2026-03-31T12:03:04.703328Z",
      "apogee_km": 483.9773084657336,
      "perigee_km": 482.22741797853723,
      "latitude_deg": 2.5451653197902967e-05,
      "longitude_deg": 126.60503184255595,
      "height_km": 482.91250577372193,
      "semi_major_axis_km": 6861.239363222136,
      "eccentricity": 0.00012752,
      "inclination_deg": 43.0035,
      "raan_deg": 136.2532,
      "arg_perigee_deg": 267.8279,
      "mean_anomaly_deg": 92.2427,
      "mean_motion_rev_day": 15.27562211
    },
    {
      "epoch": "2026-04-01T19:26:10.412736Z",
      "apogee_km": 483.29712481966635,
      "perigee_km": 482.8923121482758,
      "latitude_deg": -3.707500640374637e-06,
      "longitude_deg": 7.156080412496476,
      "height_km": 482.78406398883516,
      "semi_major_axis_km": 6861.231718483971,
      "eccentricity": 2.95e-05,
      "inclination_deg": 43.0023,
      "raan_deg": 128.867,
      "arg_perigee_deg": 295.3314,
      "mean_anomaly_deg": 64.7507,
      "mean_motion_rev_day": 15.27564764
    },
    {
      "epoch": "2026-04-02T18:58:31.675296Z",
      "apogee_km": 483.46751759344534,
      "perigee_km": 482.6304529032441,
      "latitude_deg": -1.8940772752190675e-05,
      "longitude_deg": 7.559248735572038,
      "height_km": 482.46371628810545,
      "semi_major_axis_km": 6861.185985248344,
      "eccentricity": 6.1e-05,
      "inclination_deg": 43.0024,
      "raan_deg": 123.3255,
      "arg_perigee_deg": 329.6855,
      "mean_anomaly_deg": 30.3961,
      "mean_motion_rev_day": 15.27580037
    },
    {
      "epoch": "2026-04-02T18:58:31.676160Z",
      "apogee_km": 483.467311757865,
      "perigee_km": 482.6306587388235,
      "latitude_deg": -2.0133936540199198e-05,
      "longitude_deg": 7.559243853382257,
      "height_km": 482.4638939545073,
      "semi_major_axis_km": 6861.185985248344,
      "eccentricity": 6.097e-05,
      "inclination_deg": 43.0024,
      "raan_deg": 123.3255,
      "arg_perigee_deg": 329.6855,
      "mean_anomaly_deg": 30.3961,
      "mean_motion_rev_day": 15.27580037
    },
    {
      "epoch": "2026-04-03T12:14:14.217792Z",
      "apogee_km": 483.56094340675554,
      "perigee_km": 482.49197413987895,
      "latitude_deg": 3.9240225464498014e-05,
      "longitude_deg": 103.86533283609869,
      "height_km": 482.5803631752258,
      "semi_major_axis_km": 6861.163458773317,
      "eccentricity": 7.79e-05,
      "inclination_deg": 43.0025,
      "raan_deg": 119.2677,
      "arg_perigee_deg": 294.6001,
      "mean_anomaly_deg": 65.477,
      "mean_motion_rev_day": 15.2758756
    },
    {
      "epoch": "2026-04-04T08:38:16.909152Z",
      "apogee_km": 483.4191258045039,
      "perigee_km": 482.6900555860766,
      "latitude_deg": 1.4695014066311979e-05,
      "longitude_deg": 152.21226335131126,
      "height_km": 482.8462716358891,
      "semi_major_axis_km": 6861.19159069529,
      "eccentricity": 5.313e-05,
      "inclination_deg": 43.0009,
      "raan_deg": 114.4637,
      "arg_perigee_deg": 267.5388,
      "mean_anomaly_deg": 92.5403,
      "mean_motion_rev_day": 15.27578165
    },
    {
      "epoch": "2026-04-05T09:44:47.361408Z",
      "apogee_km": 483.55467219582897,
      "perigee_km": 482.6148220409077,
      "latitude_deg": 4.575927940934936e-06,
      "longitude_deg": 128.6456990559938,
      "height_km": 483.1853734609203,
      "semi_major_axis_km": 6861.221747118368,
      "eccentricity": 6.849e-05,
      "inclination_deg": 43.0008,
      "raan_deg": 108.5552,
      "arg_perigee_deg": 226.2961,
      "mean_anomaly_deg": 133.7834,
      "mean_motion_rev_day": 15.27568094
    },
    {
      "epoch": "2026-04-05T17:35:34.098720Z",
      "apogee_km": 483.621851684944,
      "perigee_km": 482.57208288794936,
      "latitude_deg": 3.151684639427422e-05,
      "longitude_deg": 8.784151653092213,
      "height_km": 482.97148791023614,
      "semi_major_axis_km": 6861.233967286446,
      "eccentricity": 7.65e-05,
      "inclination_deg": 43.0032,
      "raan_deg": 106.7106,
      "arg_perigee_deg": 259.2344,
      "mean_anomaly_deg": 100.8422,
      "mean_motion_rev_day": 15.27564013
    },
    {
      "epoch": "2026-04-06T01:26:20.959584Z",
      "apogee_km": 483.9187939268577,
      "perigee_km": 482.23669851967315,
      "latitude_deg": -3.619901533332285e-05,
      "longitude_deg": -111.08051293526759,
      "height_km": 482.91333377279454,
      "semi_major_axis_km": 6861.214746223265,
      "eccentricity": 0.00012258,
      "inclination_deg": 43.003,
      "raan_deg": 104.8635,
      "arg_perigee_deg": 265.9976,
      "mean_anomaly_deg": 94.0735,
      "mean_motion_rev_day": 15.27570432
    },
    {
      "epoch": "2026-04-07T00:58:41.829024Z",
      "apogee_km": 483.56429452535303,
      "perigee_km": 482.56557797151254,
      "latitude_deg": -2.3910824790464677e-06,
      "longitude_deg": -110.67325307189896,
      "height_km": 482.69044422421825,
      "semi_major_axis_km": 6861.2019362484325,
      "eccentricity": 7.278e-05,
      "inclination_deg": 42.9995,
      "raan_deg": 99.3244,
      "arg_perigee_deg": 287.5459,
      "mean_anomaly_deg": 72.5313,
      "mean_motion_rev_day": 15.2757471
    },
    {
      "epoch": "2026-04-07T16:40:15.898944Z",
      "apogee_km": 483.5543270471171,
      "perigee_km": 482.5704310561623,
      "latitude_deg": -3.084028710932588e-05,
      "longitude_deg": 9.598676391670393,
      "height_km": 482.8302212179195,
      "semi_major_axis_km": 6861.19937905164,
      "eccentricity": 7.17e-05,
      "inclination_deg": 43.0005,
      "raan_deg": 95.6328,
      "arg_perigee_deg": 270.9694,
      "mean_anomaly_deg": 89.1075,
      "mean_motion_rev_day": 15.27575564
    },
    {
      "epoch": "2026-04-08T08:21:49.421952Z",
      "apogee_km": 483.6473491061497,
      "perigee_km": 482.4536397058728,
      "latitude_deg": 2.1673837638545193e-06,
      "longitude_deg": 129.8720563789747,
      "height_km": 482.8116458651665,
      "semi_major_axis_km": 6861.187494406011,
      "eccentricity": 8.699e-05,
      "inclination_deg": 43.0017,
      "raan_deg": 91.9403,
      "arg_perigee_deg": 271.4673,
      "mean_anomaly_deg": 88.6079,
      "mean_motion_rev_day": 15.27579533
    },
    {
      "epoch": "2026-04-09T15:44:57.325056Z",
      "apogee_km": 483.6558511377116,
      "perigee_km": 482.47160789179725,
      "latitude_deg": 1.495434147265954e-05,
      "longitude_deg": 10.414278633748353,
      "height_km": 482.85756645166987,
      "semi_major_axis_km": 6861.200729514754,
      "eccentricity": 8.63e-05,
      "inclination_deg": 43.0022,
      "raan_deg": 84.5544,
      "arg_perigee_deg": 268.3201,
      "mean_anomaly_deg": 91.7552,
      "mean_motion_rev_day": 15.27575113
    },
    {
      "epoch": "2026-04-10T05:52:21.550368Z",
      "apogee_km": 483.63943487439246,
      "perigee_km": 482.4646620855128,
      "latitude_deg": -3.581252201865327e-05,
      "longitude_deg": 154.65945685363837,
      "height_km": 482.82644975303634,
      "semi_major_axis_km": 6861.189048479952,
      "eccentricity": 8.561e-05,
      "inclination_deg": 43.0018,
      "raan_deg": 81.2306,
      "arg_perigee_deg": 270.1985,
      "mean_anomaly_deg": 89.8768,
      "mean_motion_rev_day": 15.27579014
    },
    {
      "epoch": "2026-04-11T14:49:39.176256Z",
      "apogee_km": 483.618769826071,
      "perigee_km": 482.52372099010427,
      "latitude_deg": -5.9932359243146686e-05,
      "longitude_deg": 11.226977684580243,
      "height_km": 482.74357923724176,
      "semi_major_axis_km": 6861.208245408087,
      "eccentricity": 7.98e-05,
      "inclination_deg": 43.0044,
      "raan_deg": 73.475,
      "arg_perigee_deg": 280.9863,
      "mean_anomaly_deg": 79.0898,
      "mean_motion_rev_day": 15.27572603
    }
  ]
}